STARLINK-36367          
1 67629U 26020N   26045.08996239  .00262864  00000+0  12086-2 0  9999
2 67629  42.9974 285.4030 0002535 273.0397  87.0185 15.82099617  2363
STARLINK-36416          
1 67630U 26020P   26045.50002314 -.00036235  00000+0 -22090-3 0  9990
2 67630  42.9983 283.0652 0002003 265.1529 202.9374 15.76320925  3662
STARLINK-36527          
1 67631U 26020Q   26045.02526174  .00463040  00000+0  20784-2 0  9996
2 67631  42.9981 285.7773 0001700 321.8647  38.2104 15.82094092  2354
STARLINK-36633          
1 67632U 26020R   26045.02451593  .00294931  00000+0  13493-2 0  9999
2 67632  42.9977 285.7709 0002360 264.7997  95.2606 15.82121897  2359
STARLINK-36637          
1 67633U 26020S   26045.50002314  .00004730  00000+0  32053-4 0  9997
2 67633  42.9985 283.0343 0001853 268.6351 211.9266 15.76345704  3669
STARLINK-36617          
1 67634U 26020T   26045.02323276  .00463043  00000+0  20712-2 0  9991
2 67634  42.9980 285.7604 0002077 296.7235  63.3424 15.82169483  2351
STARLINK-36627          
1 67635U 26020U   26045.50002314 -.00080609  00000+0 -49628-3 0  9995
2 67635  42.9986 282.9402 0001832 265.0644 252.8080 15.76385403  3667
STARLINK-36624          
1 67636U 26020V   26045.02137277  .00430809  00000+0  19402-2 0  9995
2 67636  42.9981 285.7455 0001542 311.8139  48.2601 15.82105448  2356
STARLINK-36610          
1 67637U 26020W   26045.50002314 -.00060324  00000+0 -37000-3 0  9990
2 67637  43.0037 282.9714 0001686 253.9394 251.4989 15.76370977  3662
STARLINK-36599          
1 67638U 26020X   26045.01908254  .00507762  00000+0  22616-2 0  9991
2 67638  42.9979 285.7263 0002489 300.9202  59.1425 15.82146081  2356
STARLINK-36595          
1 67639U 26020Y   26045.14455304  .00281189  00000+0  12908-2 0  9994
2 67639  42.9977 284.9456 0002625 258.5611 101.4966 15.82083673  2374
STARLINK-36570          
1 67640U 26020Z   26045.50002314 -.00077641  00000+0 -47782-3 0  9992
2 67640  42.9988 282.8777 0002110 238.6103 304.1546 15.76380247  3664
